
# Worst residual: 83.42 km
# MJD 59110.000000 (2020 Sep 18  0:00)
ZTF0Dy2 = ZTF0E1U = ZTF0E2T
1 99999U 00000    20262.49919926  .00000000  00000-0  00000-0 0  9930
2 99999 027.9773 320.5232 7505579 200.5502 226.2398 01.06372907    08

# Worst residual: 132.72 km
# MJD 59111.000000 (2020 Sep 19  0:00)
ZTF0Dy2 = ZTF0E1U = ZTF0E2T
1 99999U 00000    20263.49919926  .00000000  00000-0  00000-0 0  9931
2 99999 027.7429 320.2486 7493054 201.4390 248.9905 01.06410354    05

# Worst residual: 154.13 km
# MJD 59112.000000 (2020 Sep 20  0:00)
ZTF0Dy2 = ZTF0E1U = ZTF0E2T
1 99999U 00000    20264.49919926  .00000000  00000-0  00000-0 0  9932
2 99999 027.5173 319.9947 7481289 202.3169 271.7614 01.06483891    04

# Worst residual: 179.83 km
# MJD 59113.000000 (2020 Sep 21  0:00)
ZTF0Dy2 = ZTF0E1U = ZTF0E2T
1 99999U 00000    20265.49919926  .00000000  00000-0  00000-0 0  9933
2 99999 027.2815 319.6681 7465573 203.2732 294.5219 01.06568479    00

# Worst residual: 167.15 km
# MJD 59114.000000 (2020 Sep 22  0:00)
ZTF0Dy2 = ZTF0E1U = ZTF0E2T
1 99999U 00000    20266.49919926  .00000000  00000-0  00000-0 0  9934
2 99999 027.0630 319.3731 7449537 204.1985 317.3319 01.06678790    01

# Worst residual: 167.54 km
# MJD 59115.000000 (2020 Sep 23  0:00)
ZTF0Dy2 = ZTF0E1U = ZTF0E2T
1 99999U 00000    20267.49919926  .00000000  00000-0  00000-0 0  9935
2 99999 026.8558 319.0832 7429674 205.1183 340.1757 01.06790161    04

# Worst residual: 153.15 km
# MJD 59116.000000 (2020 Sep 24  0:00)
ZTF0Dy2 = ZTF0E1U = ZTF0E2T
1 99999U 00000    20268.49919926  .00000000  00000-0  00000-0 0  9936
2 99999 026.6768 318.8278 7410912 205.9985 003.0722 01.06887521    03

# Worst residual: 121.30 km
# MJD 59117.000000 (2020 Sep 25  0:00)
ZTF0Dy2 = ZTF0E1U = ZTF0E2T
1 99999U 00000    20269.49919926  .00000000  00000-0  00000-0 0  9937
2 99999 026.4544 318.5032 7389862 206.9165 026.0324 01.06935821    08

# Worst residual: 165.11 km
# MJD 59118.000000 (2020 Sep 26  0:00)
ZTF0Dy2 = ZTF0E1U = ZTF0E2T
1 99999U 00000    20270.49919926  .00000000  00000-0  00000-0 0  9939
2 99999 026.2590 318.2132 7371209 207.8232 048.9452 01.06919461    03

# Worst residual: 192.03 km
# MJD 59119.000000 (2020 Sep 27  0:00)
ZTF0Dy2 = ZTF0E1U = ZTF0E2T
1 99999U 00000    20271.49919926  .00000000  00000-0  00000-0 0  9930
2 99999 026.0619 317.9266 7352309 208.7370 071.8414 01.06855356    05

# Worst residual: 186.71 km
# MJD 59120.000000 (2020 Sep 28  0:00)
ZTF0Dy2 = ZTF0E1U = ZTF0E2T
1 99999U 00000    20272.49919926  .00000000  00000-0  00000-0 0  9931
2 99999 025.8632 317.6110 7331499 209.7001 094.6450 01.06757949    03

# Worst residual: 205.21 km
# MJD 59121.000000 (2020 Sep 29  0:00)
ZTF0Dy2 = ZTF0E1U = ZTF0E2T
1 99999U 00000    20273.49919926  .00000000  00000-0  00000-0 0  9932
2 99999 025.6582 317.2924 7310774 210.6676 117.4394 01.06668357    01

# Worst residual: 249.16 km
# MJD 59122.000000 (2020 Sep 30  0:00)
ZTF0Dy2 = ZTF0E1U = ZTF0E2T
1 99999U 00000    20274.49919926  .00000000  00000-0  00000-0 0  9933
2 99999 025.4630 316.9634 7282714 211.6807 140.1464 01.06564989    03

# Worst residual: 189.20 km
# MJD 59123.000000 (2020 Oct  1  0:00)
ZTF0Dy2 = ZTF0E1U = ZTF0E2T
1 99999U 00000    20275.49919926  .00000000  00000-0  00000-0 0  9934
2 99999 025.2644 316.6256 7256998 212.6770 162.8970 01.06488262    00

# Worst residual: 108.26 km
# MJD 59124.000000 (2020 Oct  2  0:00)
ZTF0Dy2 = ZTF0E1U = ZTF0E2T
1 99999U 00000    20276.49919926  .00000000  00000-0  00000-0 0  9935
2 99999 025.0775 316.2718 7221751 213.6938 185.5998 01.06403081    06

# Worst residual: 68.77 km
# MJD 59125.000000 (2020 Oct  3  0:00)
ZTF0Dy2 = ZTF0E1U = ZTF0E2T
1 99999U 00000    20277.49919926  .00000000  00000-0  00000-0 0  9936
2 99999 024.9151 315.9563 7188886 214.6203 208.4335 01.06330403    00

# Worst residual: 76.09 km
# MJD 59126.000000 (2020 Oct  4  0:00)
ZTF0Dy2 = ZTF0E1U = ZTF0E2T
1 99999U 00000    20278.49919926  .00000000  00000-0  00000-0 0  9937
2 99999 024.7402 315.5795 7168300 215.6156 231.2371 01.06363714    02

# Worst residual: 142.91 km
# MJD 59127.000000 (2020 Oct  5  0:00)
ZTF0Dy2 = ZTF0E1U = ZTF0E2T
1 99999U 00000    20279.49919926  .00000000  00000-0  00000-0 0  9938
2 99999 024.5762 315.2339 7144625 216.6185 253.9986 01.06401827    08

# Worst residual: 187.26 km
# MJD 59128.000000 (2020 Oct  6  0:00)
ZTF0Dy2 = ZTF0E1U = ZTF0E2T
1 99999U 00000    20280.49919926  .00000000  00000-0  00000-0 0  9930
2 99999 024.4151 314.8661 7122269 217.6551 276.7531 01.06478909    04

# Worst residual: 202.73 km
# MJD 59129.000000 (2020 Oct  7  0:00)
ZTF0Dy2 = ZTF0E1U = ZTF0E2T
1 99999U 00000    20281.49919926  .00000000  00000-0  00000-0 0  9931
2 99999 024.2795 314.5273 7095689 218.6797 299.4980 01.06574988    04

# Worst residual: 176.11 km
# MJD 59130.000000 (2020 Oct  8  0:00)
ZTF0Dy2 = ZTF0E1U = ZTF0E2T
1 99999U 00000    20282.49919926  .00000000  00000-0  00000-0 0  9932
2 99999 024.1388 314.1853 7069577 219.7203 322.2902 01.06677309    02

# Worst residual: 196.64 km
# MJD 59131.000000 (2020 Oct  9  0:00)
ZTF0Dy2 = ZTF0E1U = ZTF0E2T
1 99999U 00000    20283.49919926  .00000000  00000-0  00000-0 0  9933
2 99999 023.9904 313.8142 7038618 220.7631 345.1361 01.06806560    05

# Worst residual: 178.75 km
# MJD 59132.000000 (2020 Oct 10  0:00)
ZTF0Dy2 = ZTF0E1U = ZTF0E2T
1 99999U 00000    20284.49919926  .00000000  00000-0  00000-0 0  9934
2 99999 023.8540 313.4517 7008938 221.8027 008.0015 01.06901569    01

# Worst residual: 142.06 km
# MJD 59133.000000 (2020 Oct 11  0:00)
ZTF0Dy2 = ZTF0E1U = ZTF0E2T
1 99999U 00000    20285.49919926  .00000000  00000-0  00000-0 0  9935
2 99999 023.7393 313.1478 6977581 222.7666 030.9512 01.06960781    03

# Worst residual: 152.27 km
# MJD 59134.000000 (2020 Oct 12  0:00)
ZTF0Dy2 = ZTF0E1U = ZTF0E2T
1 99999U 00000    20286.49919926  .00000000  00000-0  00000-0 0  9936
2 99999 023.6203 312.8234 6947972 223.7728 053.8359 01.06945930    01

# Worst residual: 175.20 km
# MJD 59135.000000 (2020 Oct 13  0:00)
ZTF0Dy2 = ZTF0E1U = ZTF0E2T
1 99999U 00000    20287.49919926  .00000000  00000-0  00000-0 0  9937
2 99999 023.5018 312.4938 6918989 224.7911 076.7043 01.06882580    07

# Worst residual: 188.22 km
# MJD 59136.000000 (2020 Oct 14  0:00)
ZTF0Dy2 = ZTF0E1U = ZTF0E2T
1 99999U 00000    20288.49919926  .00000000  00000-0  00000-0 0  9938
2 99999 023.3863 312.1658 6887402 225.8486 099.4668 01.06784354    08

# Worst residual: 209.79 km
# MJD 59137.000000 (2020 Oct 15  0:00)
ZTF0Dy2 = ZTF0E1U = ZTF0E2T
1 99999U 00000    20289.49919926  .00000000  00000-0  00000-0 0  9939
2 99999 023.2780 311.8229 6855714 226.9153 122.2126 01.06688030    07

# Worst residual: 224.37 km
# MJD 59138.000000 (2020 Oct 16  0:00)
ZTF0Dy2 = ZTF0E1U = ZTF0E2T
1 99999U 00000    20290.49919926  .00000000  00000-0  00000-0 0  9931
2 99999 023.1641 311.5001 6818742 228.0116 144.8640 01.06579137    07
